$$SOE
2459580.500000000, A.D. 2022-Jan-01 00:00:00.0000, -3.141760763119810E+08, 2.758399634173295E+08, -8.925473213480881E+07,
2459587.500000000, A.D. 2022-Jan-08 00:00:00.0000, -3.198518383346695E+08, 2.673626154993396E+08, -8.908409449372661E+07,
2459594.500000000, A.D. 2022-Jan-15 00:00:00.0000, -3.253272136959109E+08, 2.587177363541067E+08, -8.885763048745827E+07,
2459601.500000000, A.D. 2022-Jan-22 00:00:00.0000, -3.305969779312985E+08, 2.499093195104031E+08, -8.857499370751686E+07,
2459608.500000000, A.D. 2022-Jan-29 00:00:00.0000, -3.356559181599963E+08, 2.409415159165466E+08, -8.823586021422392E+07,
2459615.500000000, A.D. 2022-Feb-05 00:00:00.0000, -3.404988385526552E+08, 2.318186375162588E+08, -8.783992950369473E+07,
2459622.500000000, A.D. 2022-Feb-12 00:00:00.0000, -3.451205639158241E+08, 2.225451598214883E+08, -8.738692581639677E+07,
2459629.500000000, A.D. 2022-Feb-19 00:00:00.0000, -3.495159427321868E+08, 2.131257258360292E+08, -8.687659947113259E+07,
2459636.500000000, A.D. 2022-Feb-26 00:00:00.0000, -3.536798509871325E+08, 2.035651505934174E+08, -8.630872816502728E+07,
2459643.500000000, A.D. 2022-Mar-05 00:00:00.0000, -3.576071966415311E+08, 1.938684256795561E+08, -8.568311830698664E+07,
2459650.500000000, A.D. 2022-Mar-12 00:00:00.0000, -3.612929245476607E+08, 1.840407236607204E+08, -8.499960641263352E+07,
2459657.500000000, A.D. 2022-Mar-19 00:00:00.0000, -3.647320217558659E+08, 1.740874024301423E+08, -8.425806056703827E+07,
2459664.500000000, A.D. 2022-Mar-26 00:00:00.0000, -3.679195232078678E+08, 1.640140094508531E+08, -8.345838195943393E+07,
2459671.500000000, A.D. 2022-Apr-02 00:00:00.0000, -3.708505177668555E+08, 1.538262858206290E+08, -8.260050650178094E+07,
2459678.500000000, A.D. 2022-Apr-09 00:00:00.0000, -3.735201543297523E+08, 1.435301701433299E+08, -8.168440655618536E+07,
2459685.500000000, A.D. 2022-Apr-16 00:00:00.0000, -3.759236476813780E+08, 1.331318028375545E+08, -8.071009275025019E+07,
2459692.500000000, A.D. 2022-Apr-23 00:00:00.0000, -3.780562853763162E+08, 1.226375319406822E+08, -7.967761567476316E+07,
2459699.500000000, A.D. 2022-Apr-30 00:00:00.0000, -3.799134375370044E+08, 1.120539181349218E+08, -7.858706747552565E+07,
2459706.500000000, A.D. 2022-May-07 00:00:00.0000, -3.814905665222399E+08, 1.013877369932579E+08, -7.743858378075723E+07,
2459713.500000000, A.D. 2022-May-14 00:00:00.0000, -3.827832350886739E+08, 9.064598145073929E+07, -7.623234583981793E+07,
2459720.500000000, A.D. 2022-May-21 00:00:00.0000, -3.837871150889139E+08, 7.983586522115898E+07, -7.496858262140100E+07,
2459727.500000000, A.D. 2022-May-28 00:00:00.0000, -3.844979971997353E+08, 6.896482616032250E+07, -7.364757290336500E+07,
2459734.500000000, A.D. 2022-Jun-04 00:00:00.0000, -3.849118014157634E+08, 5.804052922209394E+07, -7.226964740213487E+07,
2459741.500000000, A.D. 2022-Jun-11 00:00:00.0000, -3.850245881730956E+08, 4.707086896525928E+07, -7.083519095026241E+07,
2459748.500000000, A.D. 2022-Jun-18 00:00:00.0000, -3.848325700707805E+08, 3.606397157679322E+07, -6.934464471914886E+07,
2459755.500000000, A.D. 2022-Jun-25 00:00:00.0000, -3.843321241648383E+08, 2.502819632750123E+07, -6.779850848610193E+07,
2459762.500000000, A.D. 2022-Jul-02 00:00:00.0000, -3.835198047019216E+08, 1.397213634051637E+07, -6.619734295627639E+07,
2459769.500000000, A.D. 2022-Jul-09 00:00:00.0000, -3.823923558997720E+08, 2.904618792973001E+06, -6.454177215264756E+07,
2459776.500000000, A.D. 2022-Jul-16 00:00:00.0000, -3.809467248225781E+08, -8.165294426094336E+06, -6.283248577104871E+07,
2459783.500000000, A.D. 2022-Jul-23 00:00:00.0000, -3.791800765383832E+08, -1.922830558735851E+07, -6.107024128194913E+07,
2459790.500000000, A.D. 2022-Jul-30 00:00:00.0000, -3.770898114609491E+08, -3.027488294231924E+07, -5.925586605026562E+07,
2459797.500000000, A.D. 2022-Aug-06 00:00:00.0000, -3.746735812584817E+08, -4.129526491157489E+07, -5.739025973834917E+07,
2459804.500000000, A.D. 2022-Aug-13 00:00:00.0000, -3.719293041228294E+08, -5.227946395295294E+07, -5.547439667638000E+07,
2459811.500000000, A.D. 2022-Aug-20 00:00:00.0000, -3.688551809314283E+08, -6.321727068480910E+07, -5.350932808097936E+07,
2459818.500000000, A.D. 2022-Aug-27 00:00:00.0000, -3.654497121932250E+08, -7.409825906510803E+07, -5.149618417156817E+07,
2459825.500000000, A.D. 2022-Sep-03 00:00:00.0000, -3.617117154838715E+08, -8.491179280968004E+07, -4.943617619918671E+07,
2459832.500000000, A.D. 2022-Sep-10 00:00:00.0000, -3.576403432241215E+08, -9.564703309753935E+07, -4.733059837515783E+07,
2459839.500000000, A.D. 2022-Sep-17 00:00:00.0000, -3.532351007066288E+08, -1.062929476362473E+08, -4.518082968200294E+07,
2459846.500000000, A.D. 2022-Sep-24 00:00:00.0000, -3.484958642364717E+08, -1.168383212080740E+08, -4.298833555479150E+07,
2459853.500000000, A.D. 2022-Oct-01 00:00:00.0000, -3.434228990623441E+08, -1.272717677862084E+08, -4.075466943423042E+07,
2459860.500000000, A.D. 2022-Oct-08 00:00:00.0000, -3.380168765984926E+08, -1.375817437610024E+08, -3.848147416242186E+07,
2459867.500000000, A.D. 2022-Oct-15 00:00:00.0000, -3.322788917653615E+08, -1.477565611323912E+08, -3.617048301246970E+07,
2459874.500000000, A.D. 2022-Oct-22 00:00:00.0000, -3.262104825145441E+08, -1.577844024008014E+08, -3.382352026267911E+07,
2459881.500000000, A.D. 2022-Oct-29 00:00:00.0000, -3.198136489137977E+08, -1.676533397917058E+08, -3.144250172895716E+07,
2459888.500000000, A.D. 2022-Nov-05 00:00:00.0000, -3.130908695551891E+08, -1.773513561056305E+08, -2.902943519592620E+07,
2459895.500000000, A.D. 2022-Nov-12 00:00:00.0000, -3.060451171018384E+08, -1.868663659504360E+08, -2.658642043514819E+07,
2459902.500000000, A.D. 2022-Nov-19 00:00:00.0000, -2.986798735366954E+08, -1.961862383254898E+08, -2.411564879646127E+07,
2459909.500000000, A.D. 2022-Nov-26 00:00:00.0000, -2.909991446931314E+08, -2.052988209583831E+08, -2.161940240482095E+07,
2459916.500000000, A.D. 2022-Dec-03 00:00:00.0000, -2.830074737403130E+08, -2.141919663912193E+08, -1.910005295505612E+07,
2459923.500000000, A.D. 2022-Dec-10 00:00:00.0000, -2.747099534098717E+08, -2.228535597628071E+08, -1.656006008301975E+07,
2459930.500000000, A.D. 2022-Dec-17 00:00:00.0000, -2.661122367633315E+08, -2.312715482572188E+08, -1.400196929381277E+07,
2459937.500000000, A.D. 2022-Dec-24 00:00:00.0000, -2.572205462102501E+08, -2.394339722113512E+08, -1.142840944081524E+07,
2459944.500000000, A.D. 2022-Dec-31 00:00:00.0000, -2.480416802378539E+08, -2.473289976813624E+08, -8.842089760725439E+06,
2459951.500000000, A.D. 2023-Jan-07 00:00:00.0000, -2.385830175498164E+08, -2.549449493918809E+08, -6.245796381747797E+06,
2459958.500000000, A.D. 2023-Jan-14 00:00:00.0000, -2.288525204052519E+08, -2.622703434351838E+08, -3.642388072301134E+06,
2459965.500000000, A.D. 2023-Jan-21 00:00:00.0000, -2.188587376336823E+08, -2.692939227364405E+08, -1.034791423389018E+06,
2459972.500000000, A.D. 2023-Jan-28 00:00:00.0000, -2.086108035019585E+08, -2.760046953047812E+08, 1.574004185176834E+06,
2459979.500000000, A.D. 2023-Feb-04 00:00:00.0000, -1.981184325005792E+08, -2.823919720440058E+08, 4.180952098997265E+06,
2459986.500000000, A.D. 2023-Feb-11 00:00:00.0000, -1.873919117183591E+08, -2.884454040944053E+08, 6.782954525286540E+06,
2459993.500000000, A.D. 2023-Feb-18 00:00:00.0000, -1.764420907597974E+08, -2.941550202859291E+08, 9.376869216300279E+06,
2460000.500000000, A.D. 2023-Feb-25 00:00:00.0000, -1.652803688540899E+08, -2.995112646047481E+08, 1.195951664278941E+07,
2460007.500000000, A.D. 2023-Mar-04 00:00:00.0000, -1.539186789906411E+08, -3.045050333820946E+08, 1.452768762328018E+07,
2460014.500000000, A.D. 2023-Mar-11 00:00:00.0000, -1.423694690192153E+08, -3.091277119216444E+08, 1.707815137435180E+07,
2460021.500000000, A.D. 2023-Mar-18 00:00:00.0000, -1.306456796655108E+08, -3.133712103215685E+08, 1.960766393553412E+07,
2460028.500000000, A.D. 2023-Mar-25 00:00:00.0000, -1.187607192881093E+08, -3.172279982383230E+08, 2.211297690228917E+07,
2460035.500000000, A.D. 2023-Apr-01 00:00:00.0000, -1.067284350143330E+08, -3.206911378966979E+08, 2.459084641034646E+07,
2460042.500000000, A.D. 2023-Apr-08 00:00:00.0000, -9.456308096653551E+07, -3.237543138210624E+08, 2.703804247243093E+07,
2460049.500000000, A.D. 2023-Apr-15 00:00:00.0000, -8.227928604556987E+07, -3.264118600996411E+08, 2.945135873047081E+07,
2460056.500000000, A.D. 2023-Apr-22 00:00:00.0000, -6.989201962513860E+07, -3.286587879527976E+08, 3.182762214256817E+07,
2460063.500000000, A.D. 2023-Apr-29 00:00:00.0000, -5.741655261961957E+07, -3.304908110914611E+08, 3.416370246985584E+07,
2460070.500000000, A.D. 2023-May-06 00:00:00.0000, -4.486841591641387E+07, -3.319043668438346E+08, 3.645652180006769E+07,
2460077.500000000, A.D. 2023-May-13 00:00:00.0000, -3.226335740960241E+07, -3.328966337263177E+08, 3.870306405248070E+07,
2460084.500000000, A.D. 2023-May-20 00:00:00.0000, -1.961729768709559E+07, -3.334655457602570E+08, 4.090038432989934E+07,
2460091.500000000, A.D. 2023-May-27 00:00:00.0000, -6.946284486845190E+06, -3.336098034060594E+08, 4.304561802482764E+07,
2460098.500000000, A.D. 2023-Jun-03 00:00:00.0000, 5.733553808709248E+06, -3.333288809660470E+08, 4.513598960505387E+07,
2460105.500000000, A.D. 2023-Jun-10 00:00:00.0000, 1.840605532348834E+07, -3.326230303867519E+08, 4.716882100674260E+07,
2460112.500000000, A.D. 2023-Jun-17 00:00:00.0000, 3.105507222212295E+07, -3.314932814788566E+08, 4.914153955793002E+07,
2460119.500000000, A.D. 2023-Jun-24 00:00:00.0000, 4.366451859086957E+07, -3.299414384969810E+08, 5.105168534837283E+07,
2460126.500000000, A.D. 2023-Jul-01 00:00:00.0000, 5.621841856160545E+07, -3.279700722875642E+08, 5.289691803576353E+07,
2460133.500000000, A.D. 2023-Jul-08 00:00:00.0000, 6.870095265436749E+07, -3.255825072565836E+08, 5.467502325983700E+07,
2460140.500000000, A.D. 2023-Jul-15 00:00:00.0000, 8.109650072292833E+07, -3.227828060961378E+08, 5.638391850663023E+07,
$$EOE